{"type": "FeatureCollection", "name": "flood_extent_kathmandu_koshi_bagmati", "crs": {"type": "name", "properties": {"name": "urn:ogc:def:crs:OGC:1.3:CRS84"}}, "features": [{"type": "Feature", "properties": {"class": "flood_extent"}, "geometry": {"type": "Polygon", "coordinates": [[[85.212891, 27.588086], [85.211328, 27.588086], [85.210547, 27.588672], [85.208984, 27.588672], [85.207812, 27.588965], [85.206641, 27.589258], [85.205469, 27.589551], [85.204297, 27.589844], [85.203516, 27.59043], [85.202734, 27.591016], [85.201953, 27.591602], [85.201172, 27.592188], [85.200781, 27.593066], [85.2, 27.593652], [85.2, 27.594824], [85.2, 27.595996], [85.200391, 27.596875], [85.201172, 27.597461], [85.201563, 27.59834], [85.202344, 27.598926], [85.202344, 27.600098], [85.202344, 27.60127], [85.202734, 27.602148], [85.204297, 27.602148], [85.205469, 27.602441], [85.206641, 27.602734], [85.207422, 27.60332], [85.208203, 27.603906], [85.208984, 27.604492], [85.209766, 27.605078], [85.211328, 27.605078], [85.212891, 27.605078], [85.214453, 27.605078], [85.215234, 27.605664], [85.216797, 27.605664], [85.217969, 27.605957], [85.219141, 27.60625], [85.220703, 27.60625], [85.222266, 27.60625], [85.223828, 27.60625], [85.225, 27.606543], [85.226172, 27.606836], [85.226953, 27.607422], [85.228125, 27.607715], [85.229297, 27.608008], [85.230078, 27.608594], [85.23125, 27.608887], [85.232422, 27.60918], [85.233203, 27.609766], [85.234766, 27.609766], [85.235547, 27.610352], [85.236719, 27.610645], [85.237891, 27.610938], [85.238672, 27.611523], [85.239453, 27.612109], [85.240234, 27.612695], [85.241406, 27.612988], [85.242188, 27.613574], [85.243359, 27.613867], [85.244141, 27.614453], [85.245312, 27.614746], [85.246484, 27.615039], [85.247656, 27.615332], [85.248828, 27.615625], [85.250391, 27.615625], [85.251172, 27.616211], [85.251953, 27.616797], [85.252734, 27.617383], [85.253516, 27.617969], [85.253906, 27.618848], [85.254688, 27.619434], [85.254688, 27.620605], [85.255469, 27.621191], [85.256641, 27.621484], [85.257812, 27.621777], [85.258984, 27.62207], [85.260156, 27.622363], [85.261328, 27.622656], [85.262109, 27.623242], [85.263281, 27.623535], [85.264063, 27.624121], [85.264453, 27.625], [85.264844, 27.625879], [85.265625, 27.626465], [85.266406, 27.627051], [85.267188, 27.627637], [85.268359, 27.62793], [85.269141, 27.628516], [85.270703, 27.628516], [85.271484, 27.629102], [85.272656, 27.629395], [85.273828, 27.629688], [85.274609, 27.630273], [85.275391, 27.630859], [85.276172, 27.631445], [85.276953, 27.632031], [85.277734, 27.632617], [85.278516, 27.633203], [85.279688, 27.633496], [85.280859, 27.633789], [85.281641, 27.634375], [85.282422, 27.634961], [85.283203, 27.635547], [85.283984, 27.636133], [85.285156, 27.636426], [85.286328, 27.636719], [85.2875, 27.637012], [85.288281, 27.637598], [85.289062, 27.638184], [85.289844, 27.63877], [85.290625, 27.639355], [85.291016, 27.640234], [85.291797, 27.64082], [85.292578, 27.641406], [85.293359, 27.641992], [85.294531, 27.642285], [85.295313, 27.642871], [85.296094, 27.643457], [85.296875, 27.644043], [85.297656, 27.644629], [85.298438, 27.645215], [85.299219, 27.645801], [85.299609, 27.64668], [85.3, 27.647559], [85.301172, 27.647852], [85.301953, 27.648438], [85.302344, 27.649316], [85.303125, 27.649902], [85.303516, 27.650781], [85.303906, 27.65166], [85.304688, 27.652246], [85.305469, 27.652832], [85.305859, 27.653711], [85.30625, 27.65459], [85.307031, 27.655176], [85.307812, 27.655762], [85.308594, 27.656348], [85.309375, 27.656934], [85.310156, 27.65752], [85.310156, 27.658691], [85.310938, 27.659277], [85.310547, 27.660156], [85.310156, 27.661035], [85.308984, 27.661328], [85.308203, 27.660742], [85.307031, 27.661035], [85.30625, 27.661621], [85.305469, 27.662207], [85.304688, 27.662793], [85.303516, 27.663086], [85.302734, 27.663672], [85.301953, 27.664258], [85.300391, 27.664258], [85.298828, 27.664258], [85.298047, 27.663672], [85.296484, 27.663672], [85.295703, 27.664258], [85.294531, 27.664551], [85.29375, 27.665137], [85.292969, 27.665723], [85.292188, 27.666309], [85.291406, 27.666895], [85.290625, 27.66748], [85.290234, 27.668359], [85.289453, 27.668945], [85.289062, 27.669824], [85.288672, 27.670703], [85.288281, 27.671582], [85.288281, 27.672754], [85.288281, 27.673926], [85.2875, 27.674512], [85.288281, 27.675098], [85.288281, 27.67627], [85.288281, 27.677441], [85.288281, 27.678613], [85.289062, 27.679199], [85.289062, 27.680371], [85.289844, 27.680957], [85.290234, 27.681836], [85.290625, 27.682715], [85.291406, 27.683301], [85.291797, 27.68418], [85.292578, 27.684766], [85.292969, 27.685645], [85.29375, 27.68623], [85.294141, 27.687109], [85.294922, 27.687695], [85.295703, 27.688281], [85.296094, 27.68916], [85.296875, 27.689746], [85.297656, 27.690332], [85.298438, 27.690918], [85.299219, 27.691504], [85.299609, 27.692383], [85.300391, 27.692969], [85.301172, 27.693555], [85.301953, 27.694141], [85.302734, 27.694727], [85.303516, 27.695312], [85.304297, 27.695898], [85.304688, 27.696777], [85.305469, 27.697363], [85.30625, 27.697949], [85.307031, 27.698535], [85.307812, 27.699121], [85.308594, 27.699707], [85.309375, 27.700293], [85.310156, 27.700879], [85.310938, 27.701465], [85.311719, 27.702051], [85.3125, 27.702637], [85.313281, 27.703223], [85.314062, 27.703809], [85.314844, 27.704395], [85.315625, 27.70498], [85.316406, 27.705566], [85.317188, 27.706152], [85.317969, 27.706738], [85.31875, 27.707324], [85.319531, 27.70791], [85.320312, 27.708496], [85.321094, 27.709082], [85.322266, 27.709375], [85.323047, 27.709961], [85.323828, 27.710547], [85.324609, 27.711133], [85.326172, 27.711133], [85.326172, 27.711719], [85.326172, 27.712305], [85.326953, 27.712891], [85.327734, 27.713477], [85.328516, 27.714062], [85.329297, 27.714648], [85.330078, 27.715234], [85.330859, 27.71582], [85.331641, 27.716406], [85.332812, 27.716699], [85.333984, 27.716992], [85.334766, 27.716406], [85.336328, 27.716406], [85.337109, 27.71582], [85.338672, 27.71582], [85.339453, 27.716406], [85.339844, 27.717285], [85.339844, 27.718457], [85.341016, 27.71875], [85.342578, 27.71875], [85.343359, 27.718164], [85.344922, 27.718164], [85.345703, 27.71875], [85.346484, 27.719336], [85.347266, 27.719922], [85.348438, 27.720215], [85.349219, 27.720801], [85.35, 27.721387], [85.350781, 27.721973], [85.351562, 27.722559], [85.352734, 27.722852], [85.354297, 27.722852], [85.355469, 27.723145], [85.356641, 27.723438], [85.357422, 27.724023], [85.358203, 27.724609], [85.358984, 27.725195], [85.360156, 27.725488], [85.361328, 27.725781], [85.362109, 27.726367], [85.363281, 27.72666], [85.364453, 27.726953], [85.365234, 27.727539], [85.366016, 27.728125], [85.366797, 27.728711], [85.367188, 27.72959], [85.367969, 27.730176], [85.36875, 27.730762], [85.369531, 27.731348], [85.369922, 27.732227], [85.370703, 27.732812], [85.371094, 27.733691], [85.371875, 27.734277], [85.371875, 27.735449], [85.371094, 27.736035], [85.370703, 27.736914], [85.369531, 27.737207], [85.36875, 27.737793], [85.367969, 27.738379], [85.367188, 27.738965], [85.366797, 27.739844], [85.366797, 27.74043], [85.367578, 27.741016], [85.368359, 27.741602], [85.369141, 27.742188], [85.369922, 27.742773], [85.370703, 27.743359], [85.371484, 27.743945], [85.371875, 27.743066], [85.372656, 27.74248], [85.373438, 27.741895], [85.374609, 27.741602], [85.375, 27.740723], [85.375391, 27.739844], [85.376953, 27.739844], [85.377734, 27.74043], [85.378516, 27.741016], [85.379688, 27.741309], [85.380859, 27.741602], [85.381641, 27.742188], [85.382812, 27.74248], [85.383594, 27.743066], [85.384766, 27.743359], [85.385547, 27.743945], [85.386328, 27.744531], [85.3875, 27.744824], [85.388281, 27.74541], [85.389062, 27.745996], [85.389844, 27.746582], [85.390625, 27.747168], [85.391016, 27.748047], [85.391406, 27.748926], [85.392188, 27.749512], [85.392578, 27.750391], [85.392969, 27.75127], [85.393359, 27.752148], [85.39375, 27.753027], [85.394531, 27.753613], [85.395703, 27.753906], [85.396484, 27.754492], [85.397656, 27.754785], [85.398438, 27.755371], [85.399609, 27.755664], [85.400391, 27.75625], [85.401172, 27.756836], [85.401562, 27.757715], [85.402344, 27.758301], [85.403516, 27.758594], [85.404297, 27.75918], [85.405078, 27.759766], [85.40625, 27.760059], [85.407031, 27.760645], [85.407812, 27.76123], [85.408203, 27.762109], [85.408984, 27.762695], [85.409375, 27.763574], [85.409375, 27.764746], [85.409375, 27.765918], [85.408203, 27.766211], [85.406641, 27.766211], [85.405078, 27.766211], [85.403516, 27.766211], [85.402734, 27.766797], [85.401172, 27.766797], [85.4, 27.76709], [85.400391, 27.767969], [85.401172, 27.768555], [85.401953, 27.769141], [85.402734, 27.769727], [85.403516, 27.770313], [85.404297, 27.770898], [85.405078, 27.771484], [85.406641, 27.771484], [85.408203, 27.771484], [85.409766, 27.771484], [85.410547, 27.770898], [85.411719, 27.770605], [85.4125, 27.77002], [85.413281, 27.769434], [85.414453, 27.769141], [85.415625, 27.769434], [85.416406, 27.77002], [85.416797, 27.770898], [85.417578, 27.771484], [85.418359, 27.77207], [85.419141, 27.772656], [85.419922, 27.773242], [85.420703, 27.773828], [85.421484, 27.774414], [85.422266, 27.775], [85.423047, 27.775586], [85.423438, 27.776465], [85.424219, 27.777051], [85.425, 27.777637], [85.425781, 27.778223], [85.426562, 27.778809], [85.427344, 27.779395], [85.427734, 27.780273], [85.428125, 27.781152], [85.428906, 27.781738], [85.429297, 27.782617], [85.429688, 27.783496], [85.430469, 27.784082], [85.430469, 27.785254], [85.43125, 27.78584], [85.43125, 27.787012], [85.432031, 27.787598], [85.432422, 27.788477], [85.433203, 27.789062], [85.433594, 27.789941], [85.434375, 27.790527], [85.435156, 27.791113], [85.435938, 27.791699], [85.436328, 27.792578], [85.436719, 27.793457], [85.4375, 27.794043], [85.4375, 27.795215], [85.438281, 27.795801], [85.438672, 27.79668], [85.439453, 27.797266], [85.439844, 27.798145], [85.440625, 27.79873], [85.441406, 27.799316], [85.441797, 27.800195], [85.442188, 27.801074], [85.442969, 27.80166], [85.443359, 27.802539], [85.444141, 27.803125], [85.444531, 27.804004], [85.445312, 27.80459], [85.446094, 27.805176], [85.447266, 27.805469], [85.448047, 27.806055], [85.449609, 27.806055], [85.450391, 27.805469], [85.451562, 27.805176], [85.452344, 27.80459], [85.452344, 27.803418], [85.452344, 27.802246], [85.452344, 27.801074], [85.451562, 27.800488], [85.451172, 27.799609], [85.450781, 27.79873], [85.450391, 27.797852], [85.45, 27.796973], [85.449609, 27.796094], [85.449219, 27.795215], [85.448438, 27.794629], [85.448047, 27.79375], [85.447656, 27.792871], [85.446875, 27.792285], [85.446484, 27.791406], [85.446094, 27.790527], [85.445312, 27.789941], [85.445312, 27.78877], [85.444531, 27.788184], [85.444141, 27.787305], [85.44375, 27.786426], [85.442969, 27.78584], [85.442578, 27.784961], [85.442188, 27.784082], [85.441406, 27.783496], [85.441016, 27.782617], [85.440234, 27.782031], [85.439844, 27.781152], [85.439062, 27.780566], [85.438281, 27.77998], [85.437891, 27.779102], [85.437109, 27.778516], [85.436719, 27.777637], [85.435938, 27.777051], [85.435547, 27.776172], [85.435156, 27.775293], [85.434375, 27.774707], [85.433984, 27.773828], [85.433594, 27.772949], [85.432812, 27.772363], [85.432812, 27.771191], [85.432031, 27.770605], [85.432031, 27.769434], [85.43125, 27.768848], [85.43125, 27.767676], [85.430469, 27.76709], [85.430078, 27.766211], [85.429297, 27.765625], [85.428516, 27.765039], [85.427734, 27.764453], [85.427344, 27.763574], [85.426562, 27.762988], [85.425781, 27.762402], [85.425, 27.761816], [85.424609, 27.760938], [85.423828, 27.760352], [85.423047, 27.759766], [85.422266, 27.75918], [85.421484, 27.758594], [85.420703, 27.758008], [85.420312, 27.757129], [85.419531, 27.756543], [85.419531, 27.755371], [85.41875, 27.754785], [85.41875, 27.753613], [85.417969, 27.753027], [85.417578, 27.752148], [85.417188, 27.75127], [85.416406, 27.750684], [85.415625, 27.750098], [85.414844, 27.749512], [85.414844, 27.74834], [85.415234, 27.747461], [85.416016, 27.746875], [85.417188, 27.747168], [85.417969, 27.747754], [85.41875, 27.74834], [85.419922, 27.748633], [85.421484, 27.748633], [85.423047, 27.748633], [85.424609, 27.748633], [85.425391, 27.749219], [85.426953, 27.749219], [85.427734, 27.749805], [85.428516, 27.750391], [85.430078, 27.750391], [85.431641, 27.750391], [85.433203, 27.750391], [85.433984, 27.750977], [85.434766, 27.751563], [85.435938, 27.751855], [85.437109, 27.752148], [85.438281, 27.752441], [85.439062, 27.753027], [85.440234, 27.75332], [85.441016, 27.753906], [85.442578, 27.753906], [85.444141, 27.753906], [85.445312, 27.754199], [85.446094, 27.754785], [85.447266, 27.755078], [85.448047, 27.755664], [85.449219, 27.755957], [85.450391, 27.75625], [85.451172, 27.756836], [85.451953, 27.757422], [85.452734, 27.758008], [85.453516, 27.758594], [85.454688, 27.758887], [85.455469, 27.759473], [85.456641, 27.759766], [85.457422, 27.760352], [85.458594, 27.760645], [85.459766, 27.760938], [85.460938, 27.76123], [85.462109, 27.761523], [85.462891, 27.762109], [85.463672, 27.762695], [85.464844, 27.762988], [85.466016, 27.763281], [85.466797, 27.763867], [85.468359, 27.763867], [85.469531, 27.76416], [85.470703, 27.764453], [85.472266, 27.764453], [85.473438, 27.764746], [85.474609, 27.765039], [85.476172, 27.765039], [85.476953, 27.765625], [85.478516, 27.765625], [85.480078, 27.765625], [85.480859, 27.766211], [85.482422, 27.766211], [85.483203, 27.766797], [85.484766, 27.766797], [85.486328, 27.766797], [85.4875, 27.76709], [85.488672, 27.767383], [85.490234, 27.767383], [85.491016, 27.767969], [85.492578, 27.767969], [85.49375, 27.768262], [85.494922, 27.768555], [85.496484, 27.768555], [85.498047, 27.768555], [85.499219, 27.768262], [85.5, 27.767676], [85.500781, 27.76709], [85.501562, 27.766504], [85.502344, 27.765918], [85.502734, 27.765039], [85.503125, 27.76416], [85.503906, 27.763574], [85.503516, 27.762695], [85.503125, 27.761816], [85.502734, 27.760938], [85.502344, 27.760059], [85.501562, 27.759473], [85.501172, 27.758594], [85.500391, 27.758008], [85.499609, 27.757422], [85.498047, 27.757422], [85.497266, 27.756836], [85.496094, 27.756543], [85.494922, 27.75625], [85.49375, 27.755957], [85.492969, 27.755371], [85.491797, 27.755078], [85.491016, 27.754492], [85.489453, 27.754492], [85.488281, 27.754199], [85.487109, 27.753906], [85.485547, 27.753906], [85.484766, 27.75332], [85.483594, 27.753027], [85.482422, 27.752734], [85.481641, 27.752148], [85.480469, 27.751855], [85.479297, 27.751563], [85.478516, 27.750977], [85.476953, 27.750977], [85.476172, 27.750391], [85.474609, 27.750391], [85.473047, 27.750391], [85.472266, 27.749805], [85.471484, 27.749219], [85.470312, 27.748926], [85.469531, 27.74834], [85.468359, 27.748047], [85.467188, 27.747754], [85.466016, 27.747461], [85.465234, 27.746875], [85.464453, 27.746289], [85.463281, 27.745996], [85.462109, 27.745703], [85.460547, 27.745703], [85.459766, 27.745117], [85.458594, 27.744824], [85.457422, 27.744531], [85.455859, 27.744531], [85.454688, 27.744238], [85.453906, 27.743652], [85.453125, 27.743066], [85.451953, 27.742773], [85.451172, 27.742188], [85.45, 27.741895], [85.448828, 27.741602], [85.448047, 27.741016], [85.447266, 27.74043], [85.446094, 27.740137], [85.444922, 27.739844], [85.444141, 27.739258], [85.443359, 27.738672], [85.441797, 27.738672], [85.440625, 27.738379], [85.439453, 27.738086], [85.438672, 27.7375], [85.437891, 27.736914], [85.4375, 27.736035], [85.436719, 27.735449], [85.436719, 27.734277], [85.436328, 27.733398], [85.435547, 27.732812], [85.434766, 27.732227], [85.433203, 27.732227], [85.432812, 27.731348], [85.432031, 27.730762], [85.431641, 27.729883], [85.43125, 27.729004], [85.430078, 27.728711], [85.429297, 27.728125], [85.428125, 27.727832], [85.426953, 27.727539], [85.426172, 27.726953], [85.425, 27.72666], [85.424219, 27.726074], [85.423438, 27.725488], [85.423047, 27.724609], [85.422266, 27.724023], [85.420703, 27.724023], [85.419922, 27.723438], [85.419531, 27.722559], [85.419922, 27.72168], [85.420703, 27.721094], [85.421094, 27.720215], [85.421094, 27.719043], [85.421094, 27.717871], [85.420312, 27.717285], [85.419531, 27.716699], [85.41875, 27.716113], [85.417578, 27.71582], [85.416797, 27.715234], [85.415234, 27.715234], [85.414062, 27.715527], [85.413281, 27.716113], [85.412891, 27.716992], [85.412109, 27.717578], [85.411328, 27.718164], [85.410547, 27.71875], [85.408984, 27.71875], [85.407422, 27.71875], [85.406641, 27.718164], [85.405859, 27.717578], [85.405078, 27.716992], [85.404297, 27.716406], [85.403516, 27.71582], [85.402344, 27.715527], [85.401172, 27.715234], [85.400391, 27.714648], [85.399219, 27.714355], [85.398438, 27.71377], [85.398047, 27.712891], [85.397266, 27.712305], [85.396094, 27.712012], [85.394922, 27.711719], [85.394141, 27.711133], [85.393359, 27.710547], [85.392578, 27.709961], [85.391797, 27.709375], [85.391016, 27.708789], [85.390625, 27.70791], [85.389844, 27.707324], [85.389062, 27.706738], [85.388672, 27.705859], [85.388281, 27.70498], [85.387891, 27.704102], [85.3875, 27.703223], [85.386719, 27.702637], [85.385938, 27.702051], [85.385156, 27.701465], [85.383984, 27.701172], [85.383203, 27.700586], [85.382422, 27.7], [85.38125, 27.699707], [85.380469, 27.699121], [85.379688, 27.698535], [85.378906, 27.697949], [85.378125, 27.697363], [85.377734, 27.696484], [85.376953, 27.695898], [85.376562, 27.69502], [85.375781, 27.694434], [85.374609, 27.694141], [85.373828, 27.693555], [85.373047, 27.692969], [85.371875, 27.692676], [85.371094, 27.69209], [85.370312, 27.691504], [85.369531, 27.690918], [85.36875, 27.690332], [85.368359, 27.689453], [85.367969, 27.688574], [85.367188, 27.687988], [85.366797, 27.687109], [85.366016, 27.686523], [85.365234, 27.685938], [85.364453, 27.685352], [85.363672, 27.684766], [85.362891, 27.68418], [85.362109, 27.683594], [85.361719, 27.682715], [85.360938, 27.682129], [85.360156, 27.681543], [85.359375, 27.680957], [85.358594, 27.680371], [85.357812, 27.679785], [85.357031, 27.679199], [85.35625, 27.678613], [85.355469, 27.678027], [85.355078, 27.677148], [85.354297, 27.676562], [85.353516, 27.675977], [85.353125, 27.675098], [85.352344, 27.674512], [85.351953, 27.673633], [85.351172, 27.673047], [85.350391, 27.672461], [85.35, 27.671582], [85.349219, 27.670996], [85.348438, 27.67041], [85.347656, 27.669824], [85.346875, 27.669238], [85.346484, 27.668359], [85.345703, 27.667773], [85.345312, 27.666895], [85.344531, 27.666309], [85.34375, 27.665723], [85.342969, 27.665137], [85.342188, 27.664551], [85.341406, 27.663965], [85.341016, 27.663086], [85.340234, 27.6625], [85.339453, 27.661914], [85.338672, 27.661328], [85.337891, 27.660742], [85.3375, 27.659863], [85.336719, 27.659277], [85.336328, 27.658398], [85.335938, 27.65752], [85.335156, 27.656934], [85.334375, 27.656348], [85.333594, 27.655762], [85.332812, 27.655176], [85.332422, 27.654297], [85.332031, 27.653418], [85.331641, 27.652539], [85.330859, 27.651953], [85.330078, 27.651367], [85.329297, 27.650781], [85.328516, 27.650195], [85.327734, 27.649609], [85.326953, 27.649023], [85.326563, 27.648145], [85.325781, 27.647559], [85.325781, 27.646387], [85.325, 27.645801], [85.324219, 27.645215], [85.323438, 27.644629], [85.322656, 27.644043], [85.321875, 27.643457], [85.321875, 27.642285], [85.321094, 27.641699], [85.321094, 27.640527], [85.320703, 27.639648], [85.320312, 27.63877], [85.319531, 27.638184], [85.320312, 27.637598], [85.320703, 27.636719], [85.321484, 27.636133], [85.321875, 27.635254], [85.321875, 27.634082], [85.321875, 27.63291], [85.320703, 27.632617], [85.319922, 27.633203], [85.319141, 27.633789], [85.317969, 27.634082], [85.316797, 27.634375], [85.316016, 27.633789], [85.315625, 27.63291], [85.314844, 27.632324], [85.314062, 27.631738], [85.312891, 27.631445], [85.312109, 27.630859], [85.311328, 27.630273], [85.310547, 27.629688], [85.308984, 27.629688], [85.308203, 27.629102], [85.306641, 27.629102], [85.305859, 27.628516], [85.305078, 27.62793], [85.304297, 27.627344], [85.303516, 27.626758], [85.302344, 27.626465], [85.301172, 27.626172], [85.300391, 27.625586], [85.3, 27.624707], [85.299219, 27.624121], [85.298438, 27.623535], [85.298047, 27.622656], [85.297656, 27.621777], [85.296875, 27.621191], [85.296094, 27.620605], [85.295313, 27.62002], [85.294531, 27.619434], [85.294141, 27.618555], [85.293359, 27.617969], [85.291797, 27.617969], [85.290625, 27.617676], [85.290234, 27.616797], [85.289844, 27.615918], [85.289062, 27.615332], [85.288281, 27.614746], [85.2875, 27.61416], [85.287891, 27.613281], [85.288281, 27.612402], [85.289062, 27.611816], [85.289062, 27.610645], [85.287891, 27.610352], [85.286328, 27.610352], [85.284766, 27.610352], [85.283594, 27.610059], [85.282422, 27.609766], [85.28125, 27.610059], [85.280078, 27.610352], [85.279297, 27.609766], [85.278125, 27.609473], [85.276953, 27.60918], [85.275391, 27.60918], [85.273828, 27.60918], [85.273047, 27.608594], [85.271875, 27.608301], [85.270703, 27.608008], [85.269141, 27.608008], [85.267969, 27.607715], [85.266797, 27.607422], [85.266016, 27.606836], [85.264453, 27.606836], [85.263672, 27.60625], [85.262891, 27.605664], [85.261719, 27.605371], [85.260938, 27.604785], [85.259766, 27.604492], [85.258984, 27.603906], [85.258203, 27.60332], [85.257422, 27.602734], [85.256641, 27.602148], [85.255859, 27.601562], [85.254297, 27.601562], [85.253516, 27.600977], [85.252344, 27.600684], [85.251172, 27.600391], [85.250391, 27.599805], [85.248828, 27.599805], [85.248047, 27.599219], [85.246875, 27.598926], [85.246094, 27.59834], [85.244922, 27.598047], [85.24375, 27.597754], [85.242578, 27.597461], [85.241406, 27.597168], [85.240234, 27.596875], [85.239453, 27.596289], [85.238281, 27.595996], [85.237109, 27.595703], [85.236328, 27.595117], [85.235156, 27.594824], [85.233984, 27.594531], [85.233203, 27.593945], [85.232422, 27.593359], [85.231641, 27.592773], [85.230859, 27.592188], [85.229688, 27.591895], [85.228906, 27.591309], [85.228125, 27.590723], [85.226953, 27.59043], [85.225391, 27.59043], [85.223828, 27.59043], [85.222656, 27.590137], [85.221484, 27.589844], [85.220312, 27.589551], [85.219141, 27.589258], [85.217578, 27.589258], [85.216016, 27.589258], [85.215234, 27.588672], [85.213672, 27.588672], [85.212891, 27.588086]]]}}, {"type": "Feature", "properties": {"class": "flood_extent"}, "geometry": {"type": "Polygon", "coordinates": [[[85.365625, 27.709668], [85.366797, 27.709961], [85.367969, 27.710254], [85.36875, 27.71084], [85.369531, 27.711426], [85.370312, 27.712012], [85.370703, 27.712891], [85.371484, 27.713477], [85.373047, 27.713477], [85.373828, 27.714062], [85.375, 27.714355], [85.375781, 27.714941], [85.376562, 27.715527], [85.376953, 27.716406], [85.377734, 27.716992], [85.378516, 27.717578], [85.379688, 27.717871], [85.380859, 27.718164], [85.381641, 27.71875], [85.382812, 27.719043], [85.383594, 27.719629], [85.384375, 27.720215], [85.385156, 27.720801], [85.385547, 27.72168], [85.386328, 27.722266], [85.387109, 27.722852], [85.387891, 27.723438], [85.388672, 27.724023], [85.389062, 27.724902], [85.389844, 27.725488], [85.390625, 27.726074], [85.391406, 27.72666], [85.392188, 27.727246], [85.392969, 27.727832], [85.39375, 27.728418], [85.394531, 27.729004], [85.395312, 27.72959], [85.396094, 27.730176], [85.396094, 27.731348], [85.396875, 27.731934], [85.396875, 27.733105], [85.396875, 27.734277], [85.396484, 27.735156], [85.394922, 27.735156], [85.39375, 27.734863], [85.392578, 27.73457], [85.391797, 27.733984], [85.390625, 27.733691], [85.389844, 27.733105], [85.389062, 27.73252], [85.388281, 27.731934], [85.387109, 27.731641], [85.386328, 27.731055], [85.385547, 27.730469], [85.384375, 27.730176], [85.383594, 27.72959], [85.382812, 27.729004], [85.382031, 27.728418], [85.38125, 27.727832], [85.380859, 27.726953], [85.380078, 27.726367], [85.379297, 27.725781], [85.378516, 27.725195], [85.378125, 27.724316], [85.377344, 27.72373], [85.376562, 27.723145], [85.375781, 27.722559], [85.374609, 27.722266], [85.373828, 27.72168], [85.372656, 27.721387], [85.371875, 27.720801], [85.370703, 27.720508], [85.369922, 27.719922], [85.369141, 27.719336], [85.36875, 27.718457], [85.367969, 27.717871], [85.367969, 27.716699], [85.367188, 27.716113], [85.366406, 27.715527], [85.365625, 27.714941], [85.364844, 27.714355], [85.364453, 27.713477], [85.364062, 27.712598], [85.364062, 27.711426], [85.363281, 27.71084], [85.363281, 27.709668], [85.364453, 27.709375], [85.365625, 27.709668]]]}}, {"type": "Feature", "properties": {"class": "flood_extent"}, "geometry": {"type": "Polygon", "coordinates": [[[85.337109, 27.71875], [85.335938, 27.719043], [85.336719, 27.719629], [85.3375, 27.720215], [85.338281, 27.720801], [85.339062, 27.721387], [85.339844, 27.721387], [85.339844, 27.720215], [85.339062, 27.719629], [85.337891, 27.719336], [85.337109, 27.71875]]]}}, {"type": "Feature", "properties": {"class": "flood_extent"}, "geometry": {"type": "Polygon", "coordinates": [[[85.322656, 27.701465], [85.323438, 27.702051], [85.323828, 27.70293], [85.324219, 27.703809], [85.324609, 27.704688], [85.326172, 27.704688], [85.327734, 27.704688], [85.328516, 27.705273], [85.328906, 27.706152], [85.329688, 27.706738], [85.329688, 27.70791], [85.328906, 27.708496], [85.328516, 27.709375], [85.327344, 27.709082], [85.326953, 27.708203], [85.326172, 27.707617], [85.325391, 27.707031], [85.324609, 27.706445], [85.323047, 27.706445], [85.321484, 27.706445], [85.319922, 27.706445], [85.319141, 27.705859], [85.318359, 27.705273], [85.317578, 27.704688], [85.317188, 27.703809], [85.317969, 27.703223], [85.318359, 27.702344], [85.319141, 27.701758], [85.319922, 27.701172], [85.321484, 27.701172], [85.322656, 27.701465]]]}}, {"type": "Feature", "properties": {"class": "flood_extent"}, "geometry": {"type": "Polygon", "coordinates": [[[85.317188, 27.663379], [85.318359, 27.663672], [85.319141, 27.664258], [85.319922, 27.664844], [85.320703, 27.66543], [85.321484, 27.666016], [85.322266, 27.666602], [85.323047, 27.667188], [85.323828, 27.667773], [85.325, 27.668066], [85.325781, 27.668652], [85.326563, 27.669238], [85.327344, 27.669824], [85.328125, 27.67041], [85.328906, 27.670996], [85.329688, 27.671582], [85.330469, 27.672168], [85.33125, 27.672754], [85.332031, 27.67334], [85.332422, 27.674219], [85.333203, 27.674805], [85.333594, 27.675684], [85.334375, 27.67627], [85.335156, 27.676855], [85.335938, 27.677441], [85.336719, 27.678027], [85.3375, 27.678613], [85.337891, 27.679492], [85.338672, 27.680078], [85.339453, 27.680664], [85.340234, 27.68125], [85.341016, 27.681836], [85.341797, 27.682422], [85.342578, 27.683008], [85.342969, 27.683887], [85.34375, 27.684473], [85.344141, 27.685352], [85.344531, 27.68623], [85.345312, 27.686816], [85.346094, 27.687402], [85.346875, 27.687988], [85.347266, 27.688867], [85.347656, 27.689746], [85.348047, 27.690625], [85.348828, 27.691211], [85.349609, 27.691797], [85.350391, 27.692383], [85.351172, 27.692969], [85.351562, 27.693848], [85.352344, 27.694434], [85.352734, 27.695312], [85.353516, 27.695898], [85.354297, 27.696484], [85.355078, 27.69707], [85.355469, 27.697949], [85.35625, 27.698535], [85.357031, 27.699121], [85.357422, 27.7], [85.357812, 27.700879], [85.358594, 27.701465], [85.358594, 27.702637], [85.359375, 27.703223], [85.358594, 27.703809], [85.358203, 27.704688], [85.357422, 27.705273], [85.35625, 27.705566], [85.355078, 27.705859], [85.354297, 27.705273], [85.353516, 27.704688], [85.353125, 27.703809], [85.353125, 27.702637], [85.352344, 27.702051], [85.351172, 27.701758], [85.349609, 27.701758], [85.348438, 27.701465], [85.347656, 27.700879], [85.346875, 27.700293], [85.346094, 27.699707], [85.345312, 27.699121], [85.344141, 27.698828], [85.343359, 27.698242], [85.342188, 27.697949], [85.341406, 27.697363], [85.340625, 27.696777], [85.339844, 27.696191], [85.339062, 27.695605], [85.338281, 27.69502], [85.337891, 27.694141], [85.337109, 27.693555], [85.336719, 27.692676], [85.336328, 27.691797], [85.335547, 27.691211], [85.334766, 27.690625], [85.333203, 27.690625], [85.331641, 27.690625], [85.330859, 27.690039], [85.329297, 27.690039], [85.328516, 27.689453], [85.327734, 27.688867], [85.327344, 27.687988], [85.326563, 27.687402], [85.326172, 27.686523], [85.325781, 27.685645], [85.325, 27.685059], [85.324219, 27.684473], [85.323047, 27.68418], [85.322266, 27.683594], [85.321484, 27.683008], [85.320703, 27.682422], [85.319922, 27.681836], [85.319141, 27.68125], [85.318359, 27.680664], [85.317578, 27.680078], [85.316797, 27.679492], [85.316406, 27.678613], [85.315625, 27.678027], [85.315625, 27.676855], [85.316016, 27.675977], [85.316406, 27.675098], [85.316406, 27.673926], [85.316016, 27.673047], [85.315234, 27.672461], [85.314453, 27.671875], [85.312891, 27.671875], [85.312109, 27.672461], [85.310547, 27.672461], [85.309766, 27.671875], [85.308984, 27.671289], [85.308203, 27.670703], [85.307812, 27.669824], [85.307031, 27.669238], [85.307031, 27.668066], [85.307422, 27.667188], [85.308984, 27.667188], [85.310547, 27.667188], [85.311328, 27.666602], [85.311719, 27.665723], [85.3125, 27.665137], [85.312109, 27.664258], [85.312109, 27.663672], [85.313672, 27.663672], [85.315234, 27.663672], [85.316016, 27.663086], [85.317188, 27.663379]]]}}, {"type": "Feature", "properties": {"class": "flood_extent"}, "geometry": {"type": "Polygon", "coordinates": [[[85.315234, 27.626758], [85.314062, 27.627051], [85.314062, 27.628223], [85.314453, 27.629102], [85.315234, 27.629688], [85.316406, 27.629395], [85.317578, 27.629102], [85.317578, 27.628516], [85.316797, 27.62793], [85.316016, 27.627344], [85.315234, 27.626758]]]}}, {"type": "Feature", "properties": {"class": "flood_extent"}, "geometry": {"type": "Polygon", "coordinates": [[[85.303516, 27.618555], [85.302734, 27.619141], [85.302734, 27.619727], [85.303906, 27.619434], [85.303516, 27.618555]]]}}]}